{
  "type": "FeatureCollection",
  "features": [
    {
      "type": "Feature",
      "properties": {
        "region": "hoang_sa",
        "ten": "Đặc khu Hoàng Sa",
        "tinh": "Đà Nẵng",
        "source": "Vẽ tay 26/09/2026, trùng bbox Hoàng Sa của pipelines/tiles/python/patch_sovereignty.py; Natural Earth 10m không có đất nước khác trong khung"
      },
      "geometry": {
        "type": "Polygon",
        "coordinates": [
          [
            [
              111.0,
              15.7
            ],
            [
              113.0,
              15.7
            ],
            [
              113.0,
              17.2
            ],
            [
              111.0,
              17.2
            ],
            [
              111.0,
              15.7
            ]
          ]
        ]
      }
    },
    {
      "type": "Feature",
      "properties": {
        "region": "truong_sa",
        "ten": "Đặc khu Trường Sa",
        "tinh": "Khánh Hòa",
        "source": "Vẽ tay 26/09/2026 từ bbox Trường Sa của patch_sovereignty.py, khoét góc đông nam để không chứa đất VÀ lãnh hải 12 hải lý của Sabah/Banggi/Mantanani (Pulau Mantanani 116,31°E 6,71°N → cắt ở 115,9°E dưới 7,6°N) và Palawan/Balabac (116,95–117,8°E, 7,8–9,17°N theo Natural Earth 10m → cắt ở 116,3°E dưới 9,8°N)"
      },
      "geometry": {
        "type": "Polygon",
        "coordinates": [
          [
            [
              111.4,
              6.5
            ],
            [
              115.9,
              6.5
            ],
            [
              115.9,
              7.6
            ],
            [
              116.3,
              7.6
            ],
            [
              116.3,
              9.8
            ],
            [
              117.8,
              9.8
            ],
            [
              117.8,
              12.1
            ],
            [
              111.4,
              12.1
            ],
            [
              111.4,
              6.5
            ]
          ]
        ]
      }
    }
  ]
}
